{"type": "FeatureCollection", "features": [ {"type": "Feature", "properties": {"norad_id": 32260, "name": "GPS BIIRM-4 (PRN 15)", "group": "gnss", "lat": 18.50255383496088, "lon": -106.61569925361626, "alt_km": 20036.240125501514, "timestamp": "2025-12-19T22:41:52.633504+00:00", "meta": {"OBJECT_NAME": "GPS BIIRM-4 (PRN 15)", "OBJECT_ID": "2007-047A", "EPOCH": "2025-12-19T17:36:20.111040", "MEAN_MOTION": 2.00564307, "ECCENTRICITY": 0.0164067, "INCLINATION": 53.9598, "RA_OF_ASC_NODE": 87.4697, "ARG_OF_PERICENTER": 85.3347, "MEAN_ANOMALY": 276.5368, "EPHEMERIS_TYPE": 0, "CLASSIFICATION_TYPE": "U", "NORAD_CAT_ID": 32260, "ELEMENT_SET_NO": 999, "REV_AT_EPOCH": 13321, "BSTAR": 0, "MEAN_MOTION_DOT": -3.5e-07, "MEAN_MOTION_DDOT": 0}, "tle": {"line1": "1 32260U 07047A   25353.73356610 -.00000035  00000+0  00000+0 0  9997", "line2": "2 32260  53.9598  87.4697 0164067  85.3347 276.5368  2.00564307133213"}}, "geometry": {"type": "Point", "coordinates": [-106.61569925361626, 18.50255383496088]}}, {"type": "Feature", "properties": {"norad_id": 32275, "name": "COSMOS 2433 (720)", "group": "gnss", "lat": -35.81222084211965, "lon": 160.98523590500568, "alt_km": 19123.466990528123, "timestamp": "2025-12-19T22:41:52.633516+00:00", "meta": {"OBJECT_NAME": "COSMOS 2433 (720)", "OBJECT_ID": "2007-052A", "EPOCH": "2025-12-19T04:33:13.000320", "MEAN_MOTION": 2.13104199, "ECCENTRICITY": 0.0005237, "INCLINATION": 65.6796, "RA_OF_ASC_NODE": 321.9886, "ARG_OF_PERICENTER": 255.1824, "MEAN_ANOMALY": 104.7517, "EPHEMERIS_TYPE": 0, "CLASSIFICATION_TYPE": "U", "NORAD_CAT_ID": 32275, "ELEMENT_SET_NO": 999, "REV_AT_EPOCH": 14122, "BSTAR": 0, "MEAN_MOTION_DOT": -5.9e-07, "MEAN_MOTION_DDOT": 0}, "tle": {"line1": "1 32275U 07052A   25353.18973380 -.00000059  00000+0  00000+0 0  9993", "line2": "2 32275  65.6796 321.9886 0005237 255.1824 104.7517  2.13104199141226"}}, "geometry": {"type": "Point", "coordinates": [160.98523590500568, -35.81222084211965]}}, {"type": "Feature", "properties": {"norad_id": 32276, "name": "COSMOS 2432 (719)", "group": "gnss", "lat": 14.213275085442342, "lon": 135.50076680069557, "alt_km": 19153.427520790996, "timestamp": "2025-12-19T22:41:52.633529+00:00", "meta": {"OBJECT_NAME": "COSMOS 2432 (719)", "OBJECT_ID": "2007-052B", "EPOCH": "2025-12-19T12:16:13.975104", "MEAN_MOTION": 2.13103394, "ECCENTRICITY": 0.0011354, "INCLINATION": 65.6952, "RA_OF_ASC_NODE": 322.1022, "ARG_OF_PERICENTER": 313.8406, "MEAN_ANOMALY": 237.2136, "EPHEMERIS_TYPE": 0, "CLASSIFICATION_TYPE": "U", "NORAD_CAT_ID": 32276, "ELEMENT_SET_NO": 999, "REV_AT_EPOCH": 14125, "BSTAR": 0, "MEAN_MOTION_DOT": -5.7e-07, "MEAN_MOTION_DDOT": 0}, "tle": {"line1": "1 32276U 07052B   25353.51127286 -.00000057  00000+0  00000+0 0  9995", "line2": "2 32276  65.6952 322.1022 0011354 313.8406 237.2136  2.13103394141259"}}, "geometry": {"type": "Point", "coordinates": [135.50076680069557, 14.213275085442342]}}, {"type": "Feature", "properties": {"norad_id": 32384, "name": "GPS BIIRM-5 (PRN 29)", "group": "gnss", "lat": -52.512309277299025, "lon": -143.64385902607938, "alt_km": 20232.860552018825, "timestamp": "2025-12-19T22:41:52.633542+00:00", "meta": {"OBJECT_NAME": "GPS BIIRM-5 (PRN 29)", "OBJECT_ID": "2007-062A", "EPOCH": "2025-12-19T04:08:10.010976", "MEAN_MOTION": 2.00577702, "ECCENTRICITY": 0.00322663, "INCLINATION": 55.1765, "RA_OF_ASC_NODE": 281.388, "ARG_OF_PERICENTER": 162.2119, "MEAN_ANOMALY": 283.9132, "EPHEMERIS_TYPE": 0, "CLASSIFICATION_TYPE": "U", "NORAD_CAT_ID": 32384, "ELEMENT_SET_NO": 999, "REV_AT_EPOCH": 13190, "BSTAR": 0, "MEAN_MOTION_DOT": -3.8e-07, "MEAN_MOTION_DDOT": 0}, "tle": {"line1": "1 32384U 07062A   25353.17233809 -.00000038  00000+0  00000+0 0  9996", "line2": "2 32384  55.1765 281.3880 0032266 162.2119 283.9132  2.00577702131904"}}, "geometry": {"type": "Point", "coordinates": [-143.64385902607938, -52.512309277299025]}}, {"type": "Feature", "properties": {"norad_id": 32393, "name": "COSMOS 2434 (721)", "group": "gnss", "lat": 57.5429620791781, "lon": -31.23918118115412, "alt_km": 19114.737671580344, "timestamp": "2025-12-19T22:41:52.633555+00:00", "meta": {"OBJECT_NAME": "COSMOS 2434 (721)", "OBJECT_ID": "2007-065A", "EPOCH": "2025-12-19T13:41:52.571904", "MEAN_MOTION": 2.13101446, "ECCENTRICITY": 0.0004487, "INCLINATION": 64.315, "RA_OF_ASC_NODE": 197.9727, "ARG_OF_PERICENTER": 70.8438, "MEAN_ANOMALY": 111.999, "EPHEMERIS_TYPE": 0, "CLASSIFICATION_TYPE": "U", "NORAD_CAT_ID": 32393, "ELEMENT_SET_NO": 999, "REV_AT_EPOCH": 13994, "BSTAR": 0, "MEAN_MOTION_DOT": 1.04e-06, "MEAN_MOTION_DDOT": 0}, "tle": {"line1": "1 32393U 07065A   25353.57074736  .00000104  00000+0  00000+0 0  9998", "line2": "2 32393  64.3150 197.9727 0004487  70.8438 111.9990  2.13101446139944"}}, "geometry": {"type": "Point", "coordinates": [-31.23918118115412, 57.5429620791781]}}, {"type": "Feature", "properties": {"norad_id": 32395, "name": "COSMOS 2436 (723)", "group": "gnss", "lat": -53.66131304369751, "lon": 58.90024580336374, "alt_km": 19163.095526170775, "timestamp": "2025-12-19T22:41:52.633567+00:00", "meta": {"OBJECT_NAME": "COSMOS 2436 (723)", "OBJECT_ID": "2007-065C", "EPOCH": "2025-12-19T09:42:12.629376", "MEAN_MOTION": 2.13100261, "ECCENTRICITY": 0.0017823, "INCLINATION": 64.3238, "RA_OF_ASC_NODE": 198.0487, "ARG_OF_PERICENTER": 9.8735, "MEAN_ANOMALY": 178.3327, "EPHEMERIS_TYPE": 0, "CLASSIFICATION_TYPE": "U", "NORAD_CAT_ID": 32395, "ELEMENT_SET_NO": 999, "REV_AT_EPOCH": 13989, "BSTAR": 0, "MEAN_MOTION_DOT": 1.05e-06, "MEAN_MOTION_DDOT": 0}, "tle": {"line1": "1 32395U 07065C   25353.40431284  .00000105  00000+0  00000+0 0  9998", "line2": "2 32395  64.3238 198.0487 0017823   9.8735 178.3327  2.13100261139897"}}, "geometry": {"type": "Point", "coordinates": [58.90024580336374, -53.66131304369751]}}, {"type": "Feature", "properties": {"norad_id": 32711, "name": "GPS BIIRM-6 (PRN 07)", "group": "gnss", "lat": -21.945817009692757, "lon": -6.189892123955841, "alt_km": 19755.343799591297, "timestamp": "2025-12-19T22:41:52.633579+00:00", "meta": {"OBJECT_NAME": "GPS BIIRM-6 (PRN 07)", "OBJECT_ID": "2008-012A", "EPOCH": "2025-12-19T15:41:26.858112", "MEAN_MOTION": 2.00565937, "ECCENTRICITY": 0.0202735, "INCLINATION": 54.4779, "RA_OF_ASC_NODE": 157.0969, "ARG_OF_PERICENTER": 245.0276, "MEAN_ANOMALY": 112.8468, "EPHEMERIS_TYPE": 0, "CLASSIFICATION_TYPE": "U", "NORAD_CAT_ID": 32711, "ELEMENT_SET_NO": 999, "REV_AT_EPOCH": 13015, "BSTAR": 0, "MEAN_MOTION_DOT": 6.7e-07, "MEAN_MOTION_DDOT": 0}, "tle": {"line1": "1 32711U 08012A   25353.65378308  .00000067  00000+0  00000+0 0  9994", "line2": "2 32711  54.4779 157.0969 0202735 245.0276 112.8468  2.00565937130151"}}, "geometry": {"type": "Point", "coordinates": [-6.189892123955841, -21.945817009692757]}}, {"type": "Feature", "properties": {"norad_id": 35752, "name": "GPS BIIRM-8 (PRN 05)", "group": "gnss", "lat": -38.72705064770635, "lon": -112.86628376136211, "alt_km": 20302.022887823605, "timestamp": "2025-12-19T22:41:52.633591+00:00", "meta": {"OBJECT_NAME": "GPS BIIRM-8 (PRN 05)", "OBJECT_ID": "2009-043A", "EPOCH": "2025-12-18T04:21:14.473728", "MEAN_MOTION": 2.00565462, "ECCENTRICITY": 0.00516833, "INCLINATION": 56.0947, "RA_OF_ASC_NODE": 34.5684, "ARG_OF_PERICENTER": 81.8123, "MEAN_ANOMALY": 312.8651, "EPHEMERIS_TYPE": 0, "CLASSIFICATION_TYPE": "U", "NORAD_CAT_ID": 35752, "ELEMENT_SET_NO": 999, "REV_AT_EPOCH": 11973, "BSTAR": 0, "MEAN_MOTION_DOT": -7.2e-07, "MEAN_MOTION_DDOT": 0}, "tle": {"line1": "1 35752U 09043A   25352.18141752 -.00000072  00000+0  00000+0 0  9992", "line2": "2 35752  56.0947  34.5684 0051683  81.8123 312.8651  2.00565462119738"}}, "geometry": {"type": "Point", "coordinates": [-112.86628376136211, -38.72705064770635]}}, {"type": "Feature", "properties": {"norad_id": 36111, "name": "COSMOS 2456 (730)", "group": "gnss", "lat": -64.82411407835913, "lon": -18.47776151432303, "alt_km": 19129.136076613027, "timestamp": "2025-12-19T22:41:52.633603+00:00", "meta": {"OBJECT_NAME": "COSMOS 2456 (730)", "OBJECT_ID": "2009-070A", "EPOCH": "2025-12-19T16:51:58.589280", "MEAN_MOTION": 2.13103691, "ECCENTRICITY": 0.0003266, "INCLINATION": 64.904, "RA_OF_ASC_NODE": 77.0998, "ARG_OF_PERICENTER": 297.1615, "MEAN_ANOMALY": 144.0755, "EPHEMERIS_TYPE": 0, "CLASSIFICATION_TYPE": "U", "NORAD_CAT_ID": 36111, "ELEMENT_SET_NO": 999, "REV_AT_EPOCH": 12460, "BSTAR": 0, "MEAN_MOTION_DOT": -2.7e-07, "MEAN_MOTION_DDOT": 0}, "tle": {"line1": "1 36111U 09070A   25353.70276145 -.00000027  00000+0  00000+0 0  9996", "line2": "2 36111  64.9040  77.0998 0003266 297.1615 144.0755  2.13103691124600"}}, "geometry": {"type": "Point", "coordinates": [-18.47776151432303, -64.82411407835913]}}, {"type": "Feature", "properties": {"norad_id": 36112, "name": "COSMOS 2457 (733)", "group": "gnss", "lat": 32.727922825746134, "lon": 94.46051536954626, "alt_km": 19132.83970274526, "timestamp": "2025-12-19T22:41:52.633615+00:00", "meta": {"OBJECT_NAME": "COSMOS 2457 (733)", "OBJECT_ID": "2009-070B", "EPOCH": "2025-12-19T12:47:22.832160", "MEAN_MOTION": 2.13101086, "ECCENTRICITY": 0.0004579, "INCLINATION": 64.8894, "RA_OF_ASC_NODE": 76.9529, "ARG_OF_PERICENTER": 161.1215, "MEAN_ANOMALY": 278.8833, "EPHEMERIS_TYPE": 0, "CLASSIFICATION_TYPE": "U", "NORAD_CAT_ID": 36112, "ELEMENT_SET_NO": 999, "REV_AT_EPOCH": 12460, "BSTAR": 0, "MEAN_MOTION_DOT": -2.8e-07, "MEAN_MOTION_DDOT": 0}, "tle": {"line1": "1 36112U 09070B   25353.53290315 -.00000028  00000+0  00000+0 0  9994", "line2": "2 36112  64.8894  76.9529 0004579 161.1215 278.8833  2.13101086124608"}}, "geometry": {"type": "Point", "coordinates": [94.46051536954626, 32.727922825746134]}}]}